     3.04           N: GNSS NAV DATA    G: GPS              RINEX VERSION / TYPE
GR50 V4.52          Addis Ababa Universi20230903 235946 UTC PGM / RUN BY / DATE
GPSA   1.5832D-08  2.2352D-08 -1.1921D-07 -1.1921D-07       IONOSPHERIC CORR
GPSB   1.1264D+05  8.1920D+04 -1.9661D+05 -6.5536D+04       IONOSPHERIC CORR
GPUT  0.0000000000D+00 0.000000000D+00 233472 2278          TIME SYSTEM CORR
    18    18  1929     7                                    LEAP SECONDS
                                                            END OF HEADER
G22 2023 09 04 20 00 00 1.282128505409D-04-7.389644451905D-12 0.000000000000D+00
     1.180000000000D+02 1.104062500000D+02 4.296607542379D-09 2.995187016007D+00
     5.777925252914D-06 1.535761193372D-02 7.387250661850D-06 5.153618295670D+03
     1.584000000000D+05 1.583248376846D-07-1.504707432853D+00 9.499490261078D-08
     9.630890531191D-01 2.368125000000D+02-1.192518175112D+00-7.833540584123D-09
     2.678683006471D-11 1.000000000000D+00 2.278000000000D+03 0.000000000000D+00
     4.000000000000D+00 0.000000000000D+00-1.117587089539D-08 1.180000000000D+02
     1.512000000000D+05                   
G05 2023 09 04 20 00 00-1.414557918906D-04-1.477928890381D-12 0.000000000000D+00
     4.200000000000D+01-1.028125000000D+01 4.434827585513D-09 2.783260727215D+00
    -6.258487701416D-07 6.069301511161D-03 8.471310138702D-06 5.153723239899D+03
     1.584000000000D+05 5.401670932770D-08 1.499075269931D+00-9.126961231232D-08
     9.671635242772D-01 2.226562500000D+02 1.219915719529D+00-7.842469527478D-09
     4.882346226460D-10 1.000000000000D+00 2.278000000000D+03 0.000000000000D+00
     2.000000000000D+00 0.000000000000D+00-1.117587089539D-08 4.200000000000D+01
     1.512000000000D+05                   
G17 2023 09 04 20 00 00 7.234937511384D-04 3.410605131648D-13 0.000000000000D+00
     4.900000000000D+01-1.256250000000D+01 4.193746114930D-09 2.418815052602D+00
    -5.885958671570D-07 1.370276277885D-02 2.991408109665D-06 5.153575944901D+03
     1.584000000000D+05 1.192092895508D-07-4.866640025263D-01 2.980232238770D-08
     9.729199957373D-01 3.238125000000D+02-1.402945013834D+00-8.007119242942D-09
    -2.053656971627D-10 1.000000000000D+00 2.278000000000D+03 0.000000000000D+00
     2.000000000000D+00 0.000000000000D+00-1.117587089539D-08 4.900000000000D+01
     1.512000000000D+05                   
G14 2023 09 04 20 00 00 1.750495284796D-04 1.148237060988D-11 0.000000000000D+00
     3.800000000000D+01 1.066562500000D+02 4.735554397706D-09-1.181999914081D+00
     5.485489964485D-06 3.546556923538D-03 7.586553692818D-06 5.153680299759D+03
     1.584000000000D+05 4.470348358154D-08-1.566461394776D+00-1.564621925354D-07
     9.475413718958D-01 2.301250000000D+02-2.946494283668D+00-8.214985044244D-09
     3.821587755898D-11 1.000000000000D+00 2.278000000000D+03 0.000000000000D+00
     2.000000000000D+00 0.000000000000D+00-7.916241884232D-09 8.060000000000D+02
     1.512000000000D+05                   
G30 2023 09 04 20 00 00-4.906640388072D-04 3.296918293927D-12 0.000000000000D+00
     8.100000000000D+01 6.718750000000D+00 5.102712548459D-09-5.115041452408D-01
     1.937150955200D-07 6.590044242330D-03 1.075305044651D-05 5.153772354126D+03
     1.584000000000D+05 4.842877388000D-08-2.636796638741D+00 6.891787052155D-08
     9.357596587401D-01 1.574375000000D+02-2.546802046859D+00-8.274630385855D-09
    -4.618049503155D-10 1.000000000000D+00 2.278000000000D+03 0.000000000000D+00
     2.000000000000D+00 0.000000000000D+00 3.725290298462D-09 8.100000000000D+01
     1.512000000000D+05                   
G19 2023 09 04 19 59 44 3.670379519463D-04 5.115907697473D-12 0.000000000000D+00
     4.000000000000D+01-1.481250000000D+01 4.286607125821D-09-1.767165296659D+00
    -6.202608346939D-07 9.440006455407D-03 3.844499588013D-06 5.153645139694D+03
     1.583840000000D+05-2.179294824600D-07-4.422071348564D-01 4.656612873077D-08
     9.720469130613D-01 3.134687500000D+02 2.404820649518D+00-8.288916695223D-09
    -8.214627886510D-11 1.000000000000D+00 2.278000000000D+03 0.000000000000D+00
     2.000000000000D+00 0.000000000000D+00-1.536682248116D-08 4.000000000000D+01
     1.512000000000D+05                   
G20 2023 09 04 20 00 00 4.135882481933D-04-1.932676241267D-12 0.000000000000D+00
     9.100000000000D+01-1.034375000000D+01 4.793771108380D-09 1.125207155017D+00
    -7.506459951401D-07 4.066064953804D-03 8.575618267059D-06 5.153611104965D+03
     1.584000000000D+05 1.490116119385D-08 1.374835010757D+00 5.215406417847D-08
     9.497095057272D-01 2.101562500000D+02-2.860548278072D+00-8.165340119191D-09
     4.425184326689D-10 1.000000000000D+00 2.278000000000D+03 0.000000000000D+00
     2.800000000000D+00 0.000000000000D+00-8.381903171539D-09 9.100000000000D+01
     1.512000000000D+05                   
G13 2023 09 04 20 00 00 5.685719661415D-04 4.547473508865D-12 0.000000000000D+00
     1.700000000000D+01-3.081250000000D+01 4.723768192477D-09 2.061488089505D+00
    -1.648440957069D-06 7.443043636158D-03 6.778165698051D-06 5.153664272308D+03
     1.584000000000D+05-1.508742570877D-07 2.732075261467D+00-1.639127731323D-07
     9.704777403161D-01 2.545937500000D+02 9.320770067829D-01-8.007119242942D-09
    -7.571743964957D-11 1.000000000000D+00 2.278000000000D+03 0.000000000000D+00
     2.000000000000D+00 0.000000000000D+00-1.164153218269D-08 1.700000000000D+01
     1.512000000000D+05                   
G07 2023 09 04 20 00 00 7.639685645700D-05-1.057287590811D-11 0.000000000000D+00
     3.200000000000D+01 1.350000000000D+01 4.869845705764D-09-4.261772758342D-01
     6.929039955139D-07 1.754941430409D-02 1.054629683495D-05 5.153727668762D+03
     1.584000000000D+05-7.823109626770D-08-2.641383501345D+00 1.732259988785D-07
     9.506326011836D-01 1.713437500000D+02-2.174541781319D+00-8.382849179316D-09
    -4.625192657839D-10 1.000000000000D+00 2.278000000000D+03 0.000000000000D+00
     2.000000000000D+00 0.000000000000D+00-1.117587089539D-08 3.200000000000D+01
     1.512000000000D+05                   
G15 2023 09 04 20 00 00 7.436191663146D-05 3.637978807092D-12 0.000000000000D+00
     5.700000000000D+01-2.550000000000D+01 5.724524163695D-09 1.420174197967D+00
    -1.452863216400D-06 1.536673796363D-02 6.036832928658D-06 5.153768642426D+03
     1.584000000000D+05-3.986060619354D-07 2.449290450847D+00-1.899898052216D-07
     9.332484135653D-01 2.534062500000D+02 1.237329740436D+00-8.726434919613D-09
     1.132190017402D-10 1.000000000000D+00 2.278000000000D+03 0.000000000000D+00
     2.000000000000D+00 0.000000000000D+00-1.071020960808D-08 5.700000000000D+01
     1.519200000000D+05                   
G22 2023 09 04 19 59 44 1.282119192183D-04-7.389644451905D-12 0.000000000000D+00
     3.700000000000D+01 1.104062500000D+02 4.296607542379D-09 2.992853094059D+00
     5.777925252914D-06 1.535761321429D-02 7.387250661850D-06 5.153618312836D+03
     1.583840000000D+05 1.583248376846D-07-1.504707270469D+00 9.499490261078D-08
     9.630890516562D-01 2.368125000000D+02-1.192518154631D+00-7.833540584123D-09
     2.678683006471D-11 1.000000000000D+00 2.278000000000D+03 0.000000000000D+00
     2.000000000000D+00 0.000000000000D+00-1.117587089539D-08 3.700000000000D+01
     1.545900000000D+05                   
G12 2023 09 04 19 59 44-4.209773615003D-04-4.433786671143D-12 0.000000000000D+00
     1.500000000000D+01 8.865625000000D+01 4.538760486164D-09-1.066812649875D+00
     4.628673195839D-06 8.560788817704D-03 7.098540663719D-06 5.153794710159D+03
     1.583840000000D+05-8.195638656616D-08-1.526194981336D+00 1.713633537292D-07
     9.641884477590D-01 2.445937500000D+02 1.391796558416D+00-8.228199880409D-09
     5.000208278745D-12 1.000000000000D+00 2.278000000000D+03 0.000000000000D+00
     2.000000000000D+00 0.000000000000D+00-1.257285475731D-08 1.500000000000D+01
     1.548900000000D+05                   
G06 2023 09 04 20 00 00 5.558612756431D-04-6.252776074689D-12 0.000000000000D+00
     2.700000000000D+01-7.909375000000D+01 3.562648398606D-09 4.798519713035D-01
    -3.976747393608D-06 2.735511981882D-03 8.646398782730D-06 5.153741374969D+03
     1.584000000000D+05 5.215406417847D-08 5.088911277810D-01-5.960464477539D-08
     9.896533545089D-01 2.249062500000D+02-7.997042163077D-01-7.769252191967D-09
    -3.571577341961D-13 1.000000000000D+00 2.278000000000D+03 0.000000000000D+00
     2.000000000000D+00 0.000000000000D+00 3.725290298462D-09 2.700000000000D+01
     1.554300000000D+05                   
G24 2023 09 04 19 59 44-3.101010806859D-04-1.091393642128D-11 0.000000000000D+00
     1.800000000000D+01-6.093750000000D+00 5.334507917953D-09 5.821328221572D-01
    -4.656612873077D-08 1.436570065562D-02 9.965151548386D-06 5.153638359070D+03
     1.583840000000D+05-1.583248376846D-07-2.733770332942D+00 1.266598701477D-07
     9.342922904641D-01 1.740625000000D+02 9.162077278894D-01-8.544284475173D-09
    -5.093069289636D-10 1.000000000000D+00 2.278000000000D+03 0.000000000000D+00
     2.000000000000D+00 0.000000000000D+00 2.328306436539D-09 1.800000000000D+01
     1.565100000000D+05                   
G11 2023 09 04 20 00 00-3.530145622790D-04-1.807620719774D-11 0.000000000000D+00
     1.260000000000D+02-6.740625000000D+01 4.124457514496D-09 1.831727836005D+00
    -3.561377525330D-06 1.116707106121D-03 8.540228009224D-06 5.153595813751D+03
     1.584000000000D+05-1.117587089539D-08 5.479129987757D-01-4.284083843231D-08
     9.659266840950D-01 2.129375000000D+02-2.777861760750D+00-7.952116951876D-09
     2.750114553310D-11 1.000000000000D+00 2.278000000000D+03 0.000000000000D+00
     2.000000000000D+00 0.000000000000D+00-8.381903171539D-09 6.380000000000D+02
     1.570200000000D+05                   
